{
  "type": "FeatureCollection",
  "features": [
    {
      "type": "Feature",
      "properties": {
        "norad_id": 22675,
        "name": "COSMOS 2251",
        "group": "cosmos-2251-debris",
        "lat": 65.70123831955033,
        "lon": 113.97367948832287,
        "alt_km": 763.3384345554005,
        "timestamp": "2025-12-03T04:52:30.030921+00:00",
        "meta_object_name": "COSMOS 2251",
        "meta_object_id": "1993-036A",
        "meta_epoch": "2025-12-02T09:56:41.534304",
        "meta_mean_motion": 14.33199585,
        "meta_eccentricity": 0.0023667,
        "meta_inclination": 74.0393,
        "meta_ra_of_asc_node": 334.7506,
        "meta_arg_of_pericenter": 60.3278,
        "meta_mean_anomaly": 300.0225,
        "meta_ephemeris_type": 0,
        "meta_classification_type": "U",
        "meta_norad_cat_id": 22675,
        "meta_element_set_no": 999,
        "meta_rev_at_epoch": 69625,
        "meta_bstar": 6.9711752e-05,
        "meta_mean_motion_dot": 1.66e-06,
        "meta_mean_motion_ddot": 0,
        "tle_line1": "1 22675U 93036A   25336.41436961  .00000166  00000+0  69712-4 0  9997",
        "tle_line2": "2 22675  74.0393 334.7506 0023667  60.3278 300.0225 14.33199585696256"
      },
      "geometry": {
        "type": "Point",
        "coordinates": [
          113.97367948832287,
          65.70123831955033
        ]
      }
    },
    {
      "type": "Feature",
      "properties": {
        "norad_id": 33757,
        "name": "COSMOS 2251 DEB",
        "group": "cosmos-2251-debris",
        "lat": 10.911582074641112,
        "lon": 157.8581795103357,
        "alt_km": 794.7587975312999,
        "timestamp": "2025-12-03T04:52:30.030947+00:00",
        "meta_object_name": "COSMOS 2251 DEB",
        "meta_object_id": "1993-036E",
        "meta_epoch": "2025-12-02T12:03:29.317824",
        "meta_mean_motion": 14.32576707,
        "meta_eccentricity": 0.00148592,
        "meta_inclination": 74.0368,
        "meta_ra_of_asc_node": 342.3,
        "meta_arg_of_pericenter": 357.628,
        "meta_mean_anomaly": 158.6144,
        "meta_ephemeris_type": 0,
        "meta_classification_type": "U",
        "meta_norad_cat_id": 33757,
        "meta_element_set_no": 999,
        "meta_rev_at_epoch": 87849,
        "meta_bstar": 6.1835168e-05,
        "meta_mean_motion_dot": 1.42e-06,
        "meta_mean_motion_ddot": 0,
        "tle_line1": "1 33757U 93036E   25336.50242266  .00000142  00000+0  61835-4 0  9995",
        "tle_line2": "2 33757  74.0368 342.3000 0014859 357.6280 158.6144 14.32576707878492"
      },
      "geometry": {
        "type": "Point",
        "coordinates": [
          157.8581795103357,
          10.911582074641112
        ]
      }
    },
    {
      "type": "Feature",
      "properties": {
        "norad_id": 33758,
        "name": "COSMOS 2251 DEB",
        "group": "cosmos-2251-debris",
        "lat": -3.136521271894542,
        "lon": 53.8897082981301,
        "alt_km": 729.5051221823642,
        "timestamp": "2025-12-03T04:52:30.030962+00:00",
        "meta_object_name": "COSMOS 2251 DEB",
        "meta_object_id": "1993-036F",
        "meta_epoch": "2025-12-02T20:04:48.711360",
        "meta_mean_motion": 14.51487903,
        "meta_eccentricity": 0.0017584,
        "meta_inclination": 74.0288,
        "meta_ra_of_asc_node": 233.6803,
        "meta_arg_of_pericenter": 301.1491,
        "meta_mean_anomaly": 128.1206,
        "meta_ephemeris_type": 0,
        "meta_classification_type": "U",
        "meta_norad_cat_id": 33758,
        "meta_element_set_no": 999,
        "meta_rev_at_epoch": 88161,
        "meta_bstar": 0.0011801,
        "meta_mean_motion_dot": 4.701e-05,
        "meta_mean_motion_ddot": 0,
        "tle_line1": "1 33758U 93036F   25336.83667490  .00004701  00000+0  11801-2 0  9993",
        "tle_line2": "2 33758  74.0288 233.6803 0017584 301.1491 128.1206 14.51487903881612"
      },
      "geometry": {
        "type": "Point",
        "coordinates": [
          53.8897082981301,
          -3.136521271894542
        ]
      }
    },
    {
      "type": "Feature",
      "properties": {
        "norad_id": 33760,
        "name": "COSMOS 2251 DEB",
        "group": "cosmos-2251-debris",
        "lat": -47.85461096372452,
        "lon": -79.48558241379195,
        "alt_km": 779.4365138967087,
        "timestamp": "2025-12-03T04:52:30.030974+00:00",
        "meta_object_name": "COSMOS 2251 DEB",
        "meta_object_id": "1993-036H",
        "meta_epoch": "2025-12-02T16:31:59.721024",
        "meta_mean_motion": 14.35661131,
        "meta_eccentricity": 0.0019466,
        "meta_inclination": 74.0316,
        "meta_ra_of_asc_node": 299.9024,
        "meta_arg_of_pericenter": 41.1997,
        "meta_mean_anomaly": 131.9185,
        "meta_ephemeris_type": 0,
        "meta_classification_type": "U",
        "meta_norad_cat_id": 33760,
        "meta_element_set_no": 999,
        "meta_rev_at_epoch": 87980,
        "meta_bstar": 0.0001539,
        "meta_mean_motion_dot": 4.19e-06,
        "meta_mean_motion_ddot": 0,
        "tle_line1": "1 33760U 93036H   25336.68888566  .00000419  00000+0  15390-3 0  9998",
        "tle_line2": "2 33760  74.0316 299.9024 0019466  41.1997 131.9185 14.35661131879805"
      },
      "geometry": {
        "type": "Point",
        "coordinates": [
          -79.48558241379195,
          -47.85461096372452
        ]
      }
    },
    {
      "type": "Feature",
      "properties": {
        "norad_id": 33761,
        "name": "COSMOS 2251 DEB",
        "group": "cosmos-2251-debris",
        "lat": 3.3565308899036843,
        "lon": -89.18263780890669,
        "alt_km": 736.5993200722396,
        "timestamp": "2025-12-03T04:52:30.030986+00:00",
        "meta_object_name": "COSMOS 2251 DEB",
        "meta_object_id": "1993-036J",
        "meta_epoch": "2025-12-02T20:47:35.322720",
        "meta_mean_motion": 14.42490217,
        "meta_eccentricity": 0.0022726,
        "meta_inclination": 74.0367,
        "meta_ra_of_asc_node": 270.4799,
        "meta_arg_of_pericenter": 352.2804,
        "meta_mean_anomaly": 63.2769,
        "meta_ephemeris_type": 0,
        "meta_classification_type": "U",
        "meta_norad_cat_id": 33761,
        "meta_element_set_no": 999,
        "meta_rev_at_epoch": 88092,
        "meta_bstar": 0.00073536,
        "meta_mean_motion_dot": 2.418e-05,
        "meta_mean_motion_ddot": 0,
        "tle_line1": "1 33761U 93036J   25336.86638105  .00002418  00000+0  73536-3 0  9998",
        "tle_line2": "2 33761  74.0367 270.4799 0022726 352.2804  63.2769 14.42490217880924"
      },
      "geometry": {
        "type": "Point",
        "coordinates": [
          -89.18263780890669,
          3.3565308899036843
        ]
      }
    },
    {
      "type": "Feature",
      "properties": {
        "norad_id": 33762,
        "name": "COSMOS 2251 DEB",
        "group": "cosmos-2251-debris",
        "lat": -41.56863223669268,
        "lon": -47.23739855457555,
        "alt_km": 783.1051660652001,
        "timestamp": "2025-12-03T04:52:30.030997+00:00",
        "meta_object_name": "COSMOS 2251 DEB",
        "meta_object_id": "1993-036K",
        "meta_epoch": "2025-12-02T09:40:46.499808",
        "meta_mean_motion": 14.33658516,
        "meta_eccentricity": 0.00145997,
        "meta_inclination": 74.0413,
        "meta_ra_of_asc_node": 328.9253,
        "meta_arg_of_pericenter": 33.5341,
        "meta_mean_anomaly": 116.779,
        "meta_ephemeris_type": 0,
        "meta_classification_type": "U",
        "meta_norad_cat_id": 33762,
        "meta_element_set_no": 999,
        "meta_rev_at_epoch": 87899,
        "meta_bstar": 6.9155705e-05,
        "meta_mean_motion_dot": 1.66e-06,
        "meta_mean_motion_ddot": 0,
        "tle_line1": "1 33762U 93036K   25336.40331597  .00000166  00000+0  69156-4 0  9996",
        "tle_line2": "2 33762  74.0413 328.9253 0014599  33.5341 116.7790 14.33658516878995"
      },
      "geometry": {
        "type": "Point",
        "coordinates": [
          -47.23739855457555,
          -41.56863223669268
        ]
      }
    },
    {
      "type": "Feature",
      "properties": {
        "norad_id": 33764,
        "name": "COSMOS 2251 DEB",
        "group": "cosmos-2251-debris",
        "lat": -69.11020388827014,
        "lon": 158.87114864148754,
        "alt_km": 749.8385088971063,
        "timestamp": "2025-12-03T04:52:30.031008+00:00",
        "meta_object_name": "COSMOS 2251 DEB",
        "meta_object_id": "1993-036M",
        "meta_epoch": "2025-12-02T15:08:46.548384",
        "meta_mean_motion": 14.39472057,
        "meta_eccentricity": 0.00242622,
        "meta_inclination": 74.0332,
        "meta_ra_of_asc_node": 291.323,
        "meta_arg_of_pericenter": 258.7102,
        "meta_mean_anomaly": 274.4998,
        "meta_ephemeris_type": 0,
        "meta_classification_type": "U",
        "meta_norad_cat_id": 33764,
        "meta_element_set_no": 999,
        "meta_rev_at_epoch": 88011,
        "meta_bstar": 0.00049141799,
        "meta_mean_motion_dot": 1.51e-05,
        "meta_mean_motion_ddot": 0,
        "tle_line1": "1 33764U 93036M   25336.63109431  .00001510  00000+0  49142-3 0  9999",
        "tle_line2": "2 33764  74.0332 291.3230 0024262 258.7102 274.4998 14.39472057880118"
      },
      "geometry": {
        "type": "Point",
        "coordinates": [
          158.87114864148754,
          -69.11020388827014
        ]
      }
    }
  ]
}